[{"OBJECT_NAME":"RADUGA 32 [-]","OBJECT_ID":"1994-087A","EPOCH":"2022-08-18T20:54:58.902048","MEAN_MOTION":1.00261371,"ECCENTRICITY":0.0004983,"INCLINATION":14.6596,"RA_OF_ASC_NODE":1.6288,"ARG_OF_PERICENTER":182.6524,"MEAN_ANOMALY":173.1422,"EPHEMERIS_TYPE":0,"CLASSIFICATION_TYPE":"U","NORAD_CAT_ID":23448,"ELEMENT_SET_NO":999,"REV_AT_EPOCH":11885,"BSTAR":0,"MEAN_MOTION_DOT":-1.29e-6,"MEAN_MOTION_DDOT":0},{"OBJECT_NAME":"RADUGA-1 4 [-]","OBJECT_ID":"1999-010A","EPOCH":"2022-08-18T00:29:42.796608","MEAN_MOTION":1.00295039,"ECCENTRICITY":9.74e-5,"INCLINATION":15.2169,"RA_OF_ASC_NODE":13.2258,"ARG_OF_PERICENTER":184.2931,"MEAN_ANOMALY":172.874,"EPHEMERIS_TYPE":0,"CLASSIFICATION_TYPE":"U","NORAD_CAT_ID":25642,"ELEMENT_SET_NO":999,"REV_AT_EPOCH":8591,"BSTAR":0,"MEAN_MOTION_DOT":1.12e-6,"MEAN_MOTION_DDOT":0},{"OBJECT_NAME":"RADUGA-1 5 [-]","OBJECT_ID":"2000-049A","EPOCH":"2022-08-18T17:22:25.366944","MEAN_MOTION":1.00273245,"ECCENTRICITY":0.0006558,"INCLINATION":13.1617,"RA_OF_ASC_NODE":18.0546,"ARG_OF_PERICENTER":69.8843,"MEAN_ANOMALY":183.238,"EPHEMERIS_TYPE":0,"CLASSIFICATION_TYPE":"U","NORAD_CAT_ID":26477,"ELEMENT_SET_NO":999,"REV_AT_EPOCH":8039,"BSTAR":0,"MEAN_MOTION_DOT":1.05e-6,"MEAN_MOTION_DDOT":0},{"OBJECT_NAME":"RADUGA-1 6 [-]","OBJECT_ID":"2001-045A","EPOCH":"2022-08-18T11:04:42.850848","MEAN_MOTION":0.97743702,"ECCENTRICITY":0.0016486,"INCLINATION":13.3226,"RA_OF_ASC_NODE":24.3666,"ARG_OF_PERICENTER":158.6624,"MEAN_ANOMALY":213.9496,"EPHEMERIS_TYPE":0,"CLASSIFICATION_TYPE":"U","NORAD_CAT_ID":26936,"ELEMENT_SET_NO":999,"REV_AT_EPOCH":7493,"BSTAR":0,"MEAN_MOTION_DOT":-6.3e-7,"MEAN_MOTION_DDOT":0},{"OBJECT_NAME":"RADUGA-1 7 [-]","OBJECT_ID":"2004-010A","EPOCH":"2022-08-18T20:53:42.584928","MEAN_MOTION":1.0024748,"ECCENTRICITY":0.0002249,"INCLINATION":12.0391,"RA_OF_ASC_NODE":31.2059,"ARG_OF_PERICENTER":123.7761,"MEAN_ANOMALY":253.2025,"EPHEMERIS_TYPE":0,"CLASSIFICATION_TYPE":"U","NORAD_CAT_ID":28194,"ELEMENT_SET_NO":999,"REV_AT_EPOCH":6740,"BSTAR":0,"MEAN_MOTION_DOT":-3.69e-6,"MEAN_MOTION_DDOT":0},{"OBJECT_NAME":"RADUGA-1M 1 [-]","OBJECT_ID":"2007-058A","EPOCH":"2022-08-18T20:31:22.488096","MEAN_MOTION":0.99400697,"ECCENTRICITY":0.0004579,"INCLINATION":7.0292,"RA_OF_ASC_NODE":63.6278,"ARG_OF_PERICENTER":33.2425,"MEAN_ANOMALY":173.0254,"EPHEMERIS_TYPE":0,"CLASSIFICATION_TYPE":"U","NORAD_CAT_ID":32373,"ELEMENT_SET_NO":999,"REV_AT_EPOCH":3849,"BSTAR":0,"MEAN_MOTION_DOT":-1.85e-6,"MEAN_MOTION_DDOT":0},{"OBJECT_NAME":"RADUGA-1 8 [-]","OBJECT_ID":"2009-010A","EPOCH":"2022-08-18T18:50:32.595936","MEAN_MOTION":0.99830141,"ECCENTRICITY":0.0014622,"INCLINATION":9.3453,"RA_OF_ASC_NODE":53.6262,"ARG_OF_PERICENTER":6.5677,"MEAN_ANOMALY":193.2337,"EPHEMERIS_TYPE":0,"CLASSIFICATION_TYPE":"U","NORAD_CAT_ID":34264,"ELEMENT_SET_NO":999,"REV_AT_EPOCH":4921,"BSTAR":0,"MEAN_MOTION_DOT":-7.5e-7,"MEAN_MOTION_DDOT":0},{"OBJECT_NAME":"RADUGA-1M 2 [+]","OBJECT_ID":"2010-002A","EPOCH":"2022-08-18T20:37:52.523616","MEAN_MOTION":1.0028025,"ECCENTRICITY":0.0001111,"INCLINATION":0.0274,"RA_OF_ASC_NODE":169.1167,"ARG_OF_PERICENTER":36.3428,"MEAN_ANOMALY":156.1706,"EPHEMERIS_TYPE":0,"CLASSIFICATION_TYPE":"U","NORAD_CAT_ID":36358,"ELEMENT_SET_NO":999,"REV_AT_EPOCH":3606,"BSTAR":0,"MEAN_MOTION_DOT":-1.92e-6,"MEAN_MOTION_DDOT":0},{"OBJECT_NAME":"RADUGA-1M 3 [+]","OBJECT_ID":"2013-062A","EPOCH":"2022-08-18T23:06:26.613792","MEAN_MOTION":1.00273982,"ECCENTRICITY":0.000235,"INCLINATION":2.3859,"RA_OF_ASC_NODE":89.0666,"ARG_OF_PERICENTER":153.3692,"MEAN_ANOMALY":106.4468,"EPHEMERIS_TYPE":0,"CLASSIFICATION_TYPE":"U","NORAD_CAT_ID":39375,"ELEMENT_SET_NO":999,"REV_AT_EPOCH":3210,"BSTAR":0,"MEAN_MOTION_DOT":1.47e-6,"MEAN_MOTION_DDOT":0}]