RADUGA-1M 2             
1 36358U 10002A   22230.85963569 -.00000192  00000+0  00000+0 0  9999
2 36358   0.0274 169.1167 0001111  36.3428 156.1706  1.00280250 36060
RADUGA-1M 3             
1 39375U 13062A   22230.96280803  .00000147  00000+0  00000+0 0  9994
2 39375   2.3859  89.0666 0002350 153.3692 106.4468  1.00273982 32107
RADUGA 32 [-]           
1 23448U 94087A   22230.87151507 -.00000129  00000+0  00000+0 0  9993
2 23448  14.6596   1.6288 0004983 182.6524 173.1422  1.00261371118855
RADUGA-1 4 [-]          
1 25642U 99010A   22230.02063422  .00000112  00000+0  00000+0 0  9998
2 25642  15.2169  13.2258 0000974 184.2931 172.8740  1.00295039 85915
RADUGA-1 5 [-]          
1 26477U 00049A   22230.72390471  .00000105  00000+0  00000+0 0  9995
2 26477  13.1617  18.0546 0006558  69.8843 183.2380  1.00273245 80392
RADUGA-1 6 [-]          
1 26936U 01045A   22230.46160707 -.00000063  00000+0  00000+0 0  9994
2 26936  13.3226  24.3666 0016486 158.6624 213.9496  0.97743702 74935
RADUGA-1 7 [-]          
1 28194U 04010A   22230.87063177 -.00000369  00000+0  00000+0 0  9994
2 28194  12.0391  31.2059 0002249 123.7761 253.2025  1.00247480 67408
RADUGA-1M 1 [-]         
1 32373U 07058A   22230.85512139 -.00000185  00000+0  00000+0 0  9994
2 32373   7.0292  63.6278 0004579  33.2425 173.0254  0.99400697 38496
RADUGA-1 8 [-]          
1 34264U 09010A   22230.78509949 -.00000075  00000+0  00000+0 0  9990
2 34264   9.3453  53.6262 0014622   6.5677 193.2337  0.99830141 49214
